STATECODE,LabelSchoolNameShort,LabelSchoolNameLong,DSTCODE,DISTRICTNAME,SchNameDistName,GRADECONFIG,ADDRESS,CITY,ZIP,CHARTER,CORECITY5,CORECITY6,MCSCHOOL,MCELEM,GRCONFIG,ELEM,MIDDLE,HIGH
10116,Hennessey,Agnes B. Hennessey School,10,East Providence,"Hennessey, East Providence",Elementary School,75 Fort Street,East Providence,02914,Non-Charter,Non Core City (5),Non Core City (6),Non MC School,Non MC Elem School,K - 05,ELEM,,
26122,Agnes Little,Agnes E. Little School,26,Pawtucket,"Agnes Little, Pawtucket",Elementary School,60 South Bend Street,Pawtucket,02860,Non-Charter,Core City (5),Core City (6),Non MC School,Non MC Elem School,PK - 06,ELEM,,
28116,Alan Shawn Feinstein Elem,Alan Shawn Feinstein Elem.,28,Providence,"Alan Shawn Feinstein Elem, Providence",Elementary School,1450 Broad Street,Providence,02905,Non-Charter,Core City (5),Core City (6),Non MC School,Non MC Elem School,K - 05,ELEM,,
06104,Alan Shawn Feinstein MS of C,Alan Shawn Feinstein MS of Co,06,Coventry,"Alan Shawn Feinstein MS of C, Coventry",Middle School,15 Foster Dr,Coventry,02816,Non-Charter,Non Core City (5),Non Core City (6),Non MC School,Non MC Elem School,06 - 08,,MIDDLE,
35118,Aldrich Jr High,Aldrich Junior High,35,Warwick,"Aldrich Jr High, Warwick",Middle School,789 Post Road,Warwick,02888,Non-Charter,Non Core City (5),Non Core City (6),Non MC School,Non MC Elem School,07 - 08,,MIDDLE,
28121,Lima,"Alfred Lima, Sr. El School",28,Providence,"Lima, Providence",Elementary School,222 Daboll Street,Providence,02907,Non-Charter,Core City (5),Core City (6),Non MC School,Non MC Elem School,02 - 06,ELEM,,
28103,Lima Annex,"Alfred Lima, Sr. El.  Annex",28,Providence,"Lima Annex, Providence",Elementary School,65 Greenwich Street,Providence,02907,Non-Charter,Core City (5),Core City (6),Making Connections School,Making Connections Elem School,PK - 01,ELEM,,
31105,McCabe,Anna M. McCabe School,31,Smithfield,"McCabe, Smithfield",Elementary School,100 Pleasant View Avenue,Smithfield,02917,Non-Charter,Non Core City (5),Non Core City (6),Non MC School,Non MC Elem School,PK - 05,ELEM,,
28181,Carnevale,Anthony Carnevale Elementary,28,Providence,"Carnevale, Providence",Elementary School,50 Springfield Street,Providence,02909,Non-Charter,Core City (5),Core City (6),Non MC School,Non MC Elem School,PK - 06,ELEM,,
19106,Aquidneck,Aquidneck School,19,Middletown,"Aquidneck, Middletown",Elementary School,70 Reservoir Avenue,Middletown,02842,Non-Charter,Non Core City (5),Non Core City (6),Non MC School,Non MC Elem School,PK - 04,ELEM,,
09103,Cole MS,Archie R. Cole MS,09,East Greenwich,"Cole MS, East Greenwich",Middle School,100 Cedar Avenue,East Greenwich,02818,Non-Charter,Non Core City (5),Non Core City (6),Non MC School,Non MC Elem School,07 - 08,,MIDDLE,
07125,Arlington,Arlington School,07,Cranston,"Arlington, Cranston",Elementary School,155 Princess Avenue,Cranston,02920,Non-Charter,Non Core City (5),Non Core City (6),Non MC School,Non MC Elem School,PK - 06,ELEM,,
28159,Asa Messer Annex,Asa Messer Annex,28,Providence,"Asa Messer Annex, Providence",Elementary School,245 Althea Street,Providence,02909,Non-Charter,Core City (5),Core City (6),Making Connections School,Making Connections Elem School,K - 01,ELEM,,
28115,Asa Messer,Asa Messer El. School,28,Providence,"Asa Messer, Providence",Elementary School,158 Messer Street,Providence,02909,Non-Charter,Core City (5),Core City (6),Non MC School,Non MC Elem School,02 - 05,ELEM,,
98106,Ashaway Elem,Ashaway Elementary School,98,Chariho,"Ashaway Elem, Chariho",Elementary School,12A Hillside Avenue,Ashaway,02804,Non-Charter,Non Core City (5),Non Core City (6),Non MC School,Non MC Elem School,K - 04,ELEM,,
08112,Ashton,Ashton School,08,Cumberland,"Ashton, Cumberland",Elementary School,130 Scott Road,Cumberland,02864,Non-Charter,Non Core City (5),Non Core City (6),Non MC School,Non MC Elem School,K - 05,ELEM,,
03108,Levy,Austin T. Levy School,03,Burrillville,"Levy, Burrillville",Elementary School,135 Harrisville Main Stree,Burrillville,02830,Non-Charter,Non Core City (5),Non Core City (6),Non MC School,Non MC Elem School,K - 01,ELEM,,
08107,BF Norton,B.F. Norton Elementary School,08,Cumberland,"BF Norton, Cumberland",Elementary School,364 Broad Street,Cumberland,02864,Non-Charter,Non Core City (5),Non Core City (6),Non MC School,Non MC Elem School,K - 05,ELEM,,
01106,Barrington HS,Barrington High School,01,Barrington,"Barrington HS, Barrington",High School,220 Lincoln Ave,Barrington,02806,Non-Charter,Non Core City (5),Non Core City (6),Non MC School,Non MC Elem School,09 - 12,,,HIGH
01108,Barrington MS,Barrington Middle School,01,Barrington,"Barrington MS, Barrington",Middle School,Middle Highway,Barrington,02806,Non-Charter,Non Core City (5),Non Core City (6),Non MC School,Non MC Elem School,06 - 08,,MIDDLE,
39601,BEACON Charter HS,BEACON Charter School,58,Beacon Charter,"BEACON Charter HS, Beacon Charter",High School,320 Main Street,Woonsocket,02895,Charter School,Core City (5),Core City (6),Non MC School,Non MC Elem School,09 - 12,,,HIGH
39118,Bernon Heights,Bernon Heights School,39,Woonsocket,"Bernon Heights, Woonsocket",Elementary School,657 Logee Street,Woonsocket,02895,Non-Charter,Core City (5),Core City (6),Non MC School,Non MC Elem School,K - 05,ELEM,,
28131,Birch Voc HS,Birch Vocational,28,Providence,"Birch Voc HS, Providence",High School,434 Mt. Pleasant Avenue,Providence,02908,Non-Charter,Core City (5),Core City (6),Non MC School,Non MC Elem School,09 - 12,,,HIGH
24112,Birchwood MS,Birchwood Middle School,24,North Providence,"Birchwood MS, North Providence",Middle School,10 Birchwood Drive,North Providence,02904,Non-Charter,Non Core City (5),Non Core City (6),Non MC School,Non MC Elem School,06 - 08,,MIDDLE,
06117,Blackrock,Blackrock School,06,Coventry,"Blackrock, Coventry",Elementary School,12 LaCasa Drive,Coventry,02816,Non-Charter,Non Core City (5),Non Core City (6),Non MC School,Non MC Elem School,PK - 05,ELEM,,
26602,Blackstone Academy (HS),Blackstone Academy Charter,54,BLACKSTONE,"Blackstone Academy (HS), BLACKSTONE",High School,334 Pleasant Street,Pawtucket,02860,Charter School,Core City (5),Core City (6),Non MC School,Non MC Elem School,09 - 12,,,HIGH
22101,Block Island Sch,Block Island School,22,New Shoreham,"Block Island Sch, New Shoreham",Elementary Middle High,High Street PO Box 1890,Block Island,02807,Non-Charter,Non Core City (5),Non Core City (6),Non MC School,Non MC Elem School,K - 12,ELEM,MIDDLE,HIGH
36101,Bradford,Bradford Elementary School,36,Westerly,"Bradford, Westerly",Elementary School,15 Church Street,Westerly,02808,Non-Charter,Non Core City (5),Non Core City (6),Non MC School,Non MC Elem School,PK - 04,ELEM,,
32114,Broad Rock MS,Broad Rock Middle School,32,South Kingstown,"Broad Rock MS, South Kingstown",Middle School,351 Broad Rock Road,South Kingstown,02879,Non-Charter,Non Core City (5),Non Core City (6),Non MC School,Non MC Elem School,06 - 06,ELEM,,
16106,Brown Ave,Brown Avenue School,16,Johnston,"Brown Ave, Johnston",Elementary School,14 Brown Avenue,Johnston,02919,Non-Charter,Non Core City (5),Non Core City (6),Non MC School,Non MC Elem School,01 - 05,ELEM,,
03109,Burrillville HS,Burrillville High School,03,Burrillville,"Burrillville HS, Burrillville",High School,425 East Ave,Burrillville,02830,Non-Charter,Non Core City (5),Non Core City (6),Non MC School,Non MC Elem School,09 - 12,,,HIGH
03104,Burrillville MS,Burrillville Middle School,03,Burrillville,"Burrillville MS, Burrillville",Middle School,2220 Bronco Highway,Burrillville,02830,Non-Charter,Non Core City (5),Non Core City (6),Non MC School,Non MC Elem School,06 - 08,,MIDDLE,
04115,Calcutt MS,Calcutt Middle School,04,Central Falls,"Calcutt MS, Central Falls",Middle School,112 Washington St,Central Falls,02863,Non-Charter,Core City (5),Core City (6),Non MC School,Non MC Elem School,06 - 08,,MIDDLE,
12101,Paine,Capt. Isaac Paine El. School,12,Foster,"Paine, Foster",Elementary School,160 Foster Center Road,Foster,02825,Non-Charter,Non Core City (5),Non Core City (6),Non MC School,Non MC Elem School,K - 05,ELEM,,
28140,Lauro,Carl G. Lauro El. School,28,Providence,"Lauro, Providence",Elementary School,99 Kenyon Street,Providence,02903,Non-Charter,Core City (5),Core City (6),Non MC School,Non MC Elem School,PK - 06,ELEM,,
35131,Cedar Hill,Cedar Hill School,35,Warwick,"Cedar Hill, Warwick",Elementary School,35 Red Chimney Drive,Warwick,02886,Non-Charter,Non Core City (5),Non Core City (6),Non MC School,Non MC Elem School,K - 06,ELEM,,
04108,Central Falls Senior HS,Central Falls Sr High,04,Central Falls,"Central Falls Senior HS, Central Falls",High School,24 Summer St,Central Falls,02863,Non-Charter,Core City (5),Core City (6),Non MC School,Non MC Elem School,09 - 12,,,HIGH
28139,Central HS,Central High School,28,Providence,"Central HS, Providence",High School,70 Fricker Street,Providence,02903,Non-Charter,Core City (5),Core City (6),Making Connections School,Non MC Elem School,09 - 12,,,HIGH
24109,Centredale,Centredale School,24,North Providence,"Centredale, North Providence",Elementary School,41 Angell Avenue,North Providence,02911,Non-Charter,Non Core City (5),Non Core City (6),Non MC School,Non MC Elem School,PK - 05,ELEM,,
98101,Chariho HS,Chariho High School,98,Chariho,"Chariho HS, Chariho",High School,453 Switch Road,Richmond,02894,Non-Charter,Non Core City (5),Non Core City (6),Non MC School,Non MC Elem School,09 - 12,,,HIGH
98103,Chariho Regional MS,Chariho Regional Middle Schoo,98,Chariho,"Chariho Regional MS, Chariho",Middle School,455B Switch Road,Richmond,02894,Non-Charter,Non Core City (5),Non Core City (6),Non MC School,Non MC Elem School,05 - 08,,MIDDLE,
28104,Fortes Annex,Charles Fortes Annex,28,Providence,"Fortes Annex, Providence",Elementary School,65 Greenwich Street,Providence,02907,Non-Charter,Core City (5),Core City (6),Making Connections School,Making Connections Elem School,PK - 01,ELEM,,
28122,Fortes,Charles N. Fortes Academy,28,Providence,"Fortes, Providence",Elementary School,234 Daboll Street,Providence,02907,Non-Charter,Core City (5),Core City (6),Non MC School,Non MC Elem School,02 - 06,ELEM,,
98104,Charlestown Elem,Charlestown Elementary School,98,Chariho,"Charlestown Elem, Chariho",Elementary School,363 Carolina Back Road,Charlestown,02813,Non-Charter,Non Core City (5),Non Core City (6),Non MC School,Non MC Elem School,PK - 04,ELEM,,
28162,Woods,Charlotte Woods El. School,28,Providence,"Woods, Providence",Elementary School,674 Prairie Avenue,Providence,02905,Non-Charter,Core City (5),Core City (6),Making Connections School,Making Connections Elem School,K - 05,ELEM,,
07112,Barrows,Chester W. Barrows School,07,Cranston,"Barrows, Cranston",Elementary School,9 Beachmont Avenue,Cranston,02905,Non-Charter,Non Core City (5),Non Core City (6),Non MC School,Non MC Elem School,PK - 05,ELEM,,
39117,Citizens Memorial,Citizens Memorial School,39,Woonsocket,"Citizens Memorial, Woonsocket",Elementary School,250 Winthrop Street,Woonsocket,02895,Non-Charter,Core City (5),Core City (6),Non MC School,Non MC Elem School,PK - 05,ELEM,,
28164,Classical HS,Classical High School,28,Providence,"Classical HS, Providence",High School,770 Westminster Street,Providence,02903,Non-Charter,Core City (5),Core City (6),Making Connections School,Non MC Elem School,09 - 12,,,HIGH
30103,Clayville,Clayville School,30,Scituate,"Clayville, Scituate",Elementary School,3 George Washington Highwa,Scituate,02815,Non-Charter,Non Core City (5),Non Core City (6),Non MC School,Non MC Elem School,K - 05,ELEM,,
21112,Coggeshall,Coggeshall School,21,Newport,"Coggeshall, Newport",Elementary School,134 Van Zandt Avenue,Newport,02840,Non-Charter,Core City (5),Core City (6),Non MC School,Non MC Elem School,K - 04,ELEM,,
96105,Colt Andrews,Colt Andrews School,96,Bristol Warren,"Colt Andrews, Bristol Warren",Elementary School,570-574 Hope Street,Bristol,02809,Non-Charter,Non Core City (5),Non Core City (6),Non MC School,Non MC Elem School,K - 05,ELEM,,
08109,Community,Community School,08,Cumberland,"Community, Cumberland",Elementary School,15 Arnold Mills Road,Cumberland,02864,Non-Charter,Non Core City (5),Non Core City (6),Non MC School,Non MC Elem School,K - 05,ELEM,,
06119,Coventry HS,Coventry High School,06,Coventry,"Coventry HS, Coventry",High School,40 Reservoir Road,Coventry,02816,Non-Charter,Non Core City (5),Non Core City (6),Non MC School,Non MC Elem School,09 - 12,,,HIGH
21102,Cranston - Calvert,Cranston - Calvert,21,Newport,"Cranston - Calvert, Newport",Elementary School,15 Cranston Avenue,Newport,02840,Non-Charter,Core City (5),Core City (6),Non MC School,Non MC Elem School,K - 04,ELEM,,
07113,Cranston HS East,Cranston High School East,07,Cranston,"Cranston HS East, Cranston",High School,899 Park Avenue,Cranston,02910,Non-Charter,Non Core City (5),Non Core City (6),Non MC School,Non MC Elem School,09 - 12,,,HIGH
07126,Cranston HS West,Cranston High School West,07,Cranston,"Cranston HS West, Cranston",High School,80 Metropolitan Avenue,Cranston,02920,Non-Charter,Non Core City (5),Non Core City (6),Non MC School,Non MC Elem School,09 - 12,,,HIGH
08114,Cumberland HS,Cumberland High School,08,Cumberland,"Cumberland HS, Cumberland",High School,2600 Mendon Road,Cumberland,02864,Non-Charter,Non Core City (5),Non Core City (6),Non MC School,Non MC Elem School,09 - 12,,,HIGH
08121,Cumberland Preschool,Cumberland Preschool Center,08,Cumberland,"Cumberland Preschool, Cumberland",Elementary School,364 Broad Street,Cumberland,02864,Non-Charter,Non Core City (5),Non Core City (6),Non MC School,Non MC Elem School,PK - PK,,,
26121,Cunningham,Cunningham School,26,Pawtucket,"Cunningham, Pawtucket",Elementary School,40 Baldwin Street,Pawtucket,02860,Non-Charter,Core City (5),Core City (6),Non MC School,Non MC Elem School,K - 06,ELEM,,
32110,Curtis Corner MS,Curtis Corner Middle School,32,South Kingstown,"Curtis Corner MS, South Kingstown",Middle School,301 Curtis Corner Road,South Kingstown,02879,Non-Charter,Non Core City (5),Non Core City (6),Non MC School,Non MC Elem School,07 - 08,,MIDDLE,
26116,Curvin-McCabe,Curvin-McCabe School,26,Pawtucket,"Curvin-McCabe, Pawtucket",Elementary School,466 Cottage Street,Pawtucket,02861,Non-Charter,Core City (5),Core City (6),Non MC School,Non MC Elem School,K - 06,ELEM,,
07110,Waterman,Daniel D. Waterman School,07,Cranston,"Waterman, Cranston",Elementary School,722 Pontiac Avenue,Cranston,02910,Non-Charter,Non Core City (5),Non Core City (6),Non MC School,Non MC Elem School,PK - 06,ELEM,,
17701,Davies Car/Tech HS,Davies Career-Tech High Schoo,40,Davies,"Davies Car/Tech HS, Davies",High School,50 Jenckes Hill Road,Lincoln,02865,Non-Charter,Non Core City (5),Non Core City (6),Non MC School,Non MC Elem School,09 - 12,,,HIGH
23112,Davisville MS,Davisville Middle School,23,North Kingstown,"Davisville MS, North Kingstown",Middle School,200 School Street,North Kingstown,02852,Non-Charter,Non Core City (5),Non Core City (6),Non MC School,Non MC Elem School,06 - 08,,MIDDLE,
23107,Davisville,Davisville School,23,North Kingstown,"Davisville, North Kingstown",Elementary School,50 East Court,North Kingstown,02852,Non-Charter,Non Core City (5),Non Core City (6),Non MC School,Non MC Elem School,PK - 03,ELEM,,
07702,DCYF Alt.,DCYF Alternative Ed. Program,67,DCYF,"DCYF Alt., DCYF",Middle and High School,300 New London Avenue,Cranston,02920,Non-Charter,Non Core City (5),Non Core City (6),Non MC School,Non MC Elem School,07 - 12,,MIDDLE,HIGH
08601,Democracy Prep BV,Democracy Prep Blackstone Val,47,Democracy Blackstone Valley,"Democracy Prep BV, Democracy Blackstone Valley",Elementary School,7 Fatima Dr,Cumberland,02864,Charter School,Non Core City (5),Non Core City (6),Non MC School,Non MC Elem School,K - K,ELEM,,
24111,Ricci MS,Dr. Edward Ricci School,24,North Providence,"Ricci MS, North Providence",Middle School,51 Intervale Avenue,North Providence,02911,Non-Charter,Non Core City (5),Non Core City (6),Non MC School,Non MC Elem School,06 - 08,,MIDDLE,
25106,Halliwell,Dr. Halliwell School,25,North Smithfield,"Halliwell, North Smithfield",Elementary School,358 Victory Highway,North Smithfield,02876,Non-Charter,Non Core City (5),Non Core City (6),Non MC School,Non MC Elem School,03 - 05,ELEM,,
28113,Dr. Jorge Alvarez HS,Dr. Jorge Alvarez HS,28,Providence,"Dr. Jorge Alvarez HS, Providence",High School,375 Adelaide Avenue,Providence,02907,Non-Charter,Core City (5),Core City (6),Non MC School,Non MC Elem School,09 - 12,,,HIGH
35137,Drum Rock,Drum Rock Early,35,Warwick,"Drum Rock, Warwick",Elementary School,575 Centerville Road,Warwick,02886,Non-Charter,Non Core City (5),Non Core City (6),Non MC School,Non MC Elem School,PK - K,ELEM,,
36109,Dunn's Corners,Dunn's Corners School,36,Westerly,"Dunn's Corners, Westerly",Elementary School,8 1/2 Plateau Road,Westerly,02891,Non-Charter,Non Core City (5),Non Core City (6),Non MC School,Non MC Elem School,K - 04,ELEM,,
16114,Early Childhood Ctr,Early Childhood Center,16,Johnston,"Early Childhood Ctr, Johnston",Elementary School,10 Memorial Avenue,Johnston,02919,Non-Charter,Non Core City (5),Non Core City (6),Non MC School,Non MC Elem School,PK - K,ELEM,,
09106,East Greenwich HS,East Greenwich High,09,East Greenwich,"East Greenwich HS, East Greenwich",High School,300 Avenger Drive,East Greenwich,02818,Non-Charter,Non Core City (5),Non Core City (6),Non MC School,Non MC Elem School,09 - 12,,,HIGH
10112,East Providence HS,East Providence High,10,East Providence,"East Providence HS, East Providence",High School,2000 Pawtucket Avenue,East Providence,02914,Non-Charter,Non Core City (5),Non Core City (6),Non MC School,Non MC Elem School,09 - 12,,,HIGH
28187,E-Cubed Academy (HS),E-Cubed Academy,28,Providence,"E-Cubed Academy (HS), Providence",High School,812 Branch Avenue,Providence,02904,Non-Charter,Core City (5),Core City (6),Non MC School,Non MC Elem School,09 - 12,,,HIGH
07118,Eden Park,Eden Park School,07,Cranston,"Eden Park, Cranston",Elementary School,180 Oakland Avenue,Cranston,02910,Non-Charter,Non Core City (5),Non Core City (6),Non MC School,Non MC Elem School,PK - 06,ELEM,,
07130,Edgewood Highland,Edgewood Highland,07,Cranston,"Edgewood Highland, Cranston",Elementary School,160 Pawtuxet Avenue,Cranston,02905,Non-Charter,Non Core City (5),Non Core City (6),Non MC School,Non MC Elem School,PK - 06,ELEM,,
28158,Flynn,Edmund W. Flynn El. School,28,Providence,"Flynn, Providence",Elementary School,220 Blackstone Street,Providence,02905,Non-Charter,Core City (5),Core City (6),Making Connections School,Making Connections Elem School,K - 05,ELEM,,
10109,Martin MS,Edward Martin Middle,10,East Providence,"Martin MS, East Providence",Middle School,111 Brown Street,East Providence,02914,Non-Charter,Non Core City (5),Non Core City (6),Non MC School,Non MC Elem School,06 - 08,,MIDDLE,
07117,Rhodes,Edward S. Rhodes School,07,Cranston,"Rhodes, Cranston",Elementary School,160 Shaw Avenue,Cranston,02905,Non-Charter,Non Core City (5),Non Core City (6),Non MC School,Non MC Elem School,PK - 06,ELEM,,
26120,Baldwin,Elizabeth Baldwin School,26,Pawtucket,"Baldwin, Pawtucket",Elementary School,50 Whitman Street,Pawtucket,02860,Non-Charter,Core City (5),Core City (6),Non MC School,Non MC Elem School,K - 06,ELEM,,
04101,Ella Risk,Ella Risk School,04,Central Falls,"Ella Risk, Central Falls",Elementary School,949 Dexter Street,Central Falls,02863,Non-Charter,Core City (5),Core City (6),Non MC School,Non MC Elem School,K - 05,ELEM,,
27115,Elmhurst,Elmhurst School,27,Portsmouth,"Elmhurst, Portsmouth",Elementary School,1 Frank Coelho Drive,Portsmouth,02871,Non-Charter,Non Core City (5),Non Core City (6),Non MC School,Non MC Elem School,PK - 05,ELEM,,
10117,Whiteknact,Emma G. Whiteknact School,10,East Providence,"Whiteknact, East Providence",Elementary School,261 Grosvenor Avenue,East Providence,02914,Non-Charter,Non Core City (5),Non Core City (6),Non MC School,Non MC Elem School,K - 05,ELEM,,
28137,Hopkins MS,Esek Hopkins Middle,28,Providence,"Hopkins MS, Providence",Middle School,480 Charles Street,Providence,02904,Non-Charter,Core City (5),Core City (6),Non MC School,Non MC Elem School,06 - 08,,MIDDLE,
97105,Ex-WG Reg Jr High,Exeter-West Greenwich Reg. Jr,97,Exeter-W. Greenwich,"Ex-WG Reg Jr High, Exeter-W. Greenwich",Middle School,930 Nooseneck Hill Road,West Greenwich,02817,Non-Charter,Non Core City (5),Non Core City (6),Non MC School,Non MC Elem School,07 - 08,,MIDDLE,
97106,Ex-WG Reg Senior HS,Exeter-West Greenwich Regiona,97,Exeter-W. Greenwich,"Ex-WG Reg Senior HS, Exeter-W. Greenwich",High School,930 Nooseneck Hill Road,West Greenwich,02817,Non-Charter,Non Core City (5),Non Core City (6),Non MC School,Non MC Elem School,09 - 12,,,HIGH
17102,Fairlawn,Fairlawn Elementary,17,Lincoln,"Fairlawn, Lincoln",Elementary School,3 Fairlawn Way,Lincoln,02865,Non-Charter,Non Core City (5),Non Core City (6),Non MC School,Non MC Elem School,PK - 01,ELEM,,
26113,Fallon Memorial,Fallon Memorial School,26,Pawtucket,"Fallon Memorial, Pawtucket",Elementary School,62 Lincoln Avenue,Pawtucket,02861,Non-Charter,Core City (5),Core City (6),Non MC School,Non MC Elem School,K - 06,ELEM,,
28179,Feinstein HS,Feinstein High School,28,Providence,"Feinstein HS, Providence",High School,544 Elmwood Avenue,Providence,02907,Non-Charter,Core City (5),Core City (6),Making Connections School,Non MC Elem School,09 - 12,,,HIGH
39112,Fifth Ave,Fifth Avenue School,39,Woonsocket,"Fifth Ave, Woonsocket",Elementary School,65 Fifth Avenue,Woonsocket,02895,Non-Charter,Core City (5),Core City (6),Non MC School,Non MC Elem School,K - 02,ELEM,,
23109,Fishing Cove,Fishing Cove El. School,23,North Kingstown,"Fishing Cove, North Kingstown",Elementary School,110 Wickford Point Road,North Kingstown,02852,Non-Charter,Non Core City (5),Non Core City (6),Non MC School,Non MC Elem School,K - 03,ELEM,,
26115,Curtis,Flora S. Curtis School,26,Pawtucket,"Curtis, Pawtucket",Elementary School,582 Benefit Street,Pawtucket,02861,Non-Charter,Core City (5),Core City (6),Non MC School,Non MC Elem School,PK - 06,ELEM,,
13103,Fogarty Mem,Fogarty Memorial,13,Glocester,"Fogarty Mem, Glocester",Elementary School,736 Snake Hill Road,Glocester,02857,Non-Charter,Non Core City (5),Non Core City (6),Non MC School,Non MC Elem School,K - 05,ELEM,,
19107,Forest Ave,Forest Avenue School,19,Middletown,"Forest Ave, Middletown",Elementary School,315 Forest Avenue,Middletown,02842,Non-Charter,Non Core City (5),Non Core City (6),Non MC School,Non MC Elem School,PK - 04,ELEM,,
23110,Forest Park,Forest Park El. School,23,North Kingstown,"Forest Park, North Kingstown",Elementary School,50 Woodlawn Drive,North Kingstown,02852,Non-Charter,Non Core City (5),Non Core City (6),Non MC School,Non MC Elem School,K - 03,ELEM,,
33106,Fort Barton,Fort Barton School,33,Tiverton,"Fort Barton, Tiverton",Elementary School,99 Lawton Avenue,Tiverton,02878,Non-Charter,Non Core City (5),Non Core City (6),Non MC School,Non MC Elem School,K - 04,ELEM,,
26125,Varieur,Francis J. Varieur School,26,Pawtucket,"Varieur, Pawtucket",Elementary School,486 Pleasant Street,Pawtucket,02860,Non-Charter,Core City (5),Core City (6),Non MC School,Non MC Elem School,PK - 06,ELEM,,
35125,Francis,Francis School,35,Warwick,"Francis, Warwick",Elementary School,325 Miantonomo Drive,Warwick,02888,Non-Charter,Non Core City (5),Non Core City (6),Non MC School,Non MC Elem School,K - 06,ELEM,,
28134,Spaziano (frmly Laurel Hill),Frank D. Spazian Avenue Schoo,28,Providence,"Spaziano (frmly Laurel Hill), Providence",Elementary School,85 Laurel Hill Avenue,Providence,02909,Non-Charter,Core City (5),Core City (6),Non MC School,Non MC Elem School,02 - 05,ELEM,,
28106,Spaziano Annex (frmly Laurel,Frank D. Spaziano Annex,28,Providence,"Spaziano Annex (frmly Laurel, Providence",Elementary School,240 Laban Street,Providence,02909,Non-Charter,Core City (5),Core City (6),Non MC School,Non MC Elem School,K - 02,ELEM,,
21106,Thompson MS,Frank E. Thompson Middle,21,Newport,"Thompson MS, Newport",Middle School,55 Broadway,Newport,02840,Non-Charter,Core City (5),Core City (6),Non MC School,Non MC Elem School,05 - 08,,MIDDLE,
09105,Frenchtown,Frenchtown School,09,East Greenwich,"Frenchtown, East Greenwich",Elementary School,1100 Frenchtown Road,East Greenwich,02818,Non-Charter,Non Core City (5),Non Core City (6),Non MC School,Non MC Elem School,K - 03,ELEM,,
04104,Hunt,G. Harold Hunt School,04,Central Falls,"Hunt, Central Falls",Elementary School,14 Kendall Street,Central Falls,02863,Non-Charter,Core City (5),Core City (6),Non MC School,Non MC Elem School,PK - K,ELEM,,
07122,Garden City,Garden City School,07,Cranston,"Garden City, Cranston",Elementary School,70 Plantations Drive,Cranston,02920,Non-Charter,Non Core City (5),Non Core City (6),Non MC School,Non MC Elem School,PK - 06,ELEM,,
08108,Garvin Memorial,Garvin Memorial,08,Cumberland,"Garvin Memorial, Cumberland",Elementary School,1364 Diamond Hill Road,Cumberland,02864,Non-Charter,Non Core City (5),Non Core City (6),Non MC School,Non MC Elem School,K - 05,ELEM,,
09108,George Hanaford,George Hanaford School,09,East Greenwich,"George Hanaford, East Greenwich",Elementary School,200 Middle Road,East Greenwich,02818,Non-Charter,Non Core City (5),Non Core City (6),Non MC School,Non MC Elem School,04 - 06,ELEM,,
07124,Peters,George J. Peters School,07,Cranston,"Peters, Cranston",Elementary School,15 Mayberry Street,Cranston,02920,Non-Charter,Non Core City (5),Non Core City (6),Non MC School,Non MC Elem School,PK - 06,ELEM,,
28135,West,George J. West El. School,28,Providence,"West, Providence",Elementary School,145 Beaufort Street,Providence,02908,Non-Charter,Core City (5),Core City (6),Non MC School,Non MC Elem School,K - 06,ELEM,,
28144,Stuart MS,Gilbert Stuart Middle School,28,Providence,"Stuart MS, Providence",Middle School,188 Princeton Avenue,Providence,02907,Non-Charter,Core City (5),Core City (6),Making Connections School,Non MC Elem School,06 - 08,,MIDDLE,
07119,Gladstone St,Gladstone Street School,07,Cranston,"Gladstone St, Cranston",Elementary School,50 Gladstone Street,Cranston,02920,Non-Charter,Non Core City (5),Non Core City (6),Non MC School,Non MC Elem School,PK - 06,ELEM,,
07128,Glen Hills,Glen Hills School,07,Cranston,"Glen Hills, Cranston",Elementary School,50 Glen Hills Drive,Cranston,02920,Non-Charter,Non Core City (5),Non Core City (6),Non MC School,Non MC Elem School,PK - 06,ELEM,,
39119,Globe Park,Globe Park School,39,Woonsocket,"Globe Park, Woonsocket",Elementary School,192 Avenue A,Woonsocket,02895,Non-Charter,Core City (5),Core City (6),Non MC School,Non MC Elem School,PF - 05,ELEM,,
26107,Goff Jr High,Goff Junior High,26,Pawtucket,"Goff Jr High, Pawtucket",Middle School,974 Newport Avenue,Pawtucket,02861,Non-Charter,Core City (5),Core City (6),Non MC School,Non MC Elem School,07 - 08,,MIDDLE,
35120,Gorton Jr High,Gorton Junior High School,35,Warwick,"Gorton Jr High, Warwick",Middle School,69 Draper Avenue,Warwick,02889,Non-Charter,Non Core City (5),Non Core City (6),Non MC School,Non MC Elem School,07 - 08,,MIDDLE,
39110,Gov Aram Pothier,Governor Aram J. Pothier Scho,39,Woonsocket,"Gov Aram Pothier, Woonsocket",Elementary School,420 Robinson Street,Woonsocket,02895,Non-Charter,Core City (5),Core City (6),Non MC School,Non MC Elem School,PK - 02,ELEM,,
28182,DelSesto MS,Governor Christopher DelSesto,28,Providence,"DelSesto MS, Providence",Middle School,152 Springfield Street,Providence,02909,Non-Charter,Core City (5),Core City (6),Non MC School,Non MC Elem School,06 - 08,,MIDDLE,
38109,Greenbush,Greenbush Elementary School,38,West Warwick,"Greenbush, West Warwick",Elementary School,127 Greenbush Road,West Warwick,02893,Non-Charter,Non Core City (5),Core City (6),Non MC School,Non MC Elem School,PK - 05,ELEM,,
35114,Greenwood,Greenwood School,35,Warwick,"Greenwood, Warwick",Elementary School,93 Sharon Street,Warwick,02886,Non-Charter,Non Core City (5),Non Core City (6),Non MC School,Non MC Elem School,K - 06,ELEM,,
24110,Greystone,Greystone School,24,North Providence,"Greystone, North Providence",Elementary School,100 Morgan Avenue,North Providence,02911,Non-Charter,Non Core City (5),Non Core City (6),Non MC School,Non MC Elem School,PK - 05,ELEM,,
96104,Guiteras,Guiteras School,96,Bristol Warren,"Guiteras, Bristol Warren",Elementary School,35 Washington Street,Bristol,02809,Non-Charter,Non Core City (5),Non Core City (6),Non MC School,Non MC Elem School,K - 05,ELEM,,
23111,Hamilton,Hamilton School,23,North Kingstown,"Hamilton, North Kingstown",Elementary School,25 Salisbury Avenue,North Kingstown,02852,Non-Charter,Non Core City (5),Non Core City (6),Non MC School,Non MC Elem School,04 - 05,ELEM,,
01105,Hampden Meadows,Hampden Meadows School,01,Barrington,"Hampden Meadows, Barrington",Elementary School,New Meadow Rd,Barrington,02806,Non-Charter,Non Core City (5),Non Core City (6),Non MC School,Non MC Elem School,04 - 05,ELEM,,
39101,Harris,Harris School,39,Woonsocket,"Harris, Woonsocket",Elementary School,60 High School Street,Woonsocket,02895,Non-Charter,Core City (5),Core City (6),Non MC School,Non MC Elem School,K - 05,ELEM,,
28161,Kizirian,Harry Kizirian Elementary,28,Providence,"Kizirian, Providence",Elementary School,60 Camden Avenue,Providence,02908,Non-Charter,Core City (5),Core City (6),Non MC School,Non MC Elem School,K - 06,ELEM,,
32104,Hazard,Hazard School,32,South Kingstown,"Hazard, South Kingstown",Elementary School,153 School Street,South Kingstown,02879,Non-Charter,Non Core City (5),Non Core City (6),Non MC School,Non MC Elem School,PK - PK,,,
26119,Winters,Henry J. Winters School,26,Pawtucket,"Winters, Pawtucket",Elementary School,481 Broadway,Pawtucket,02860,Non-Charter,Core City (5),Core City (6),Non MC School,Non MC Elem School,K - 06,ELEM,,
28601,Highlander,Highlander Charter,48,Highlander,"Highlander, Highlander",Elementary and Middle Schoo,42 Lexington Ave,Providence,02907,Charter School,Core City (5),Core City (6),Non MC School,Non MC Elem School,K - 08,ELEM,,
35124,Holden,Holden School,35,Warwick,"Holden, Warwick",Elementary School,61 Hoxsie Avenue,Warwick,02889,Non-Charter,Non Core City (5),Non Core City (6),Non MC School,Non MC Elem School,PK - 06,ELEM,,
35128,Holliman,Holliman School,35,Warwick,"Holliman, Warwick",Elementary School,70 Deborah Road,Warwick,02888,Non-Charter,Non Core City (5),Non Core City (6),Non MC School,Non MC Elem School,PK - 06,ELEM,,
28605,Hope Arts HS,Hope Arts School,28,Providence,"Hope Arts HS, Providence",High School,326 Hope Street,Providence,02906,Non-Charter,Core City (5),Core City (6),Non MC School,Non MC Elem School,09 - 12,,,HIGH
07134,Hope Highlands,Hope Highlands Elementary,07,Cranston,"Hope Highlands, Cranston",Elementary School,300 Hope Road,Cranston,02921,Non-Charter,Non Core City (5),Non Core City (6),Non MC School,Non MC Elem School,PK - 06,ELEM,,
28603,Hope IT HS,Hope Information Technology,28,Providence,"Hope IT HS, Providence",High School,324 Hope Street,Providence,02906,Non-Charter,Core City (5),Core City (6),Non MC School,Non MC Elem School,09 - 12,,,HIGH
30102,Hope,Hope School,30,Scituate,"Hope, Scituate",Elementary School,391 North Road,Scituate,02831,Non-Charter,Non Core City (5),Non Core City (6),Non MC School,Non MC Elem School,K - 05,ELEM,,
98107,Hope Valley Elem,Hope Valley Elementary School,98,Chariho,"Hope Valley Elem, Chariho",Elementary School,15 Thelma Drive,Hope Valley,02832,Non-Charter,Non Core City (5),Non Core City (6),Non MC School,Non MC Elem School,PK - 04,ELEM,,
06112,Hopkins Hill,Hopkins Hill School,06,Coventry,"Hopkins Hill, Coventry",Elementary School,95 Johnson Boulevard,Coventry,02816,Non-Charter,Non Core City (5),Non Core City (6),Non MC School,Non MC Elem School,PK - 05,ELEM,,
27104,Hathaway,Howard Hathaway School,27,Portsmouth,"Hathaway, Portsmouth",Elementary School,Tallman Avenue,Portsmouth,02871,Non-Charter,Non Core City (5),Non Core City (6),Non MC School,Non MC Elem School,PK - 05,ELEM,,
35136,Hoxsie,Hoxsie School,35,Warwick,"Hoxsie, Warwick",Elementary School,55 Glenwood Drive,Warwick,02889,Non-Charter,Non Core City (5),Non Core City (6),Non MC School,Non MC Elem School,K - 06,ELEM,,
07115,Hugh Bain MS,Hugh B. Bain Middle School,07,Cranston,"Hugh Bain MS, Cranston",Middle School,135 Gansett Avenue,Cranston,02910,Non-Charter,Non Core City (5),Non Core City (6),Non MC School,Non MC Elem School,07 - 08,,MIDDLE,
96113,Hugh Cole,Hugh Cole School,96,Bristol Warren,"Hugh Cole, Bristol Warren",Elementary School,50 Asylum Road,Warren,02885,Non-Charter,Non Core City (5),Non Core City (6),Non MC School,Non MC Elem School,PK - 05,ELEM,,
32115,Independence,Independence Transition Acade,32,South Kingstown,"Independence, South Kingstown",High School,25 West Independence Way,South Kingstown,02881,Non-Charter,Non Core City (5),Non Core City (6),Non MC School,Non MC Elem School,09 - 12,,,HIGH
26601,Int'l Charter,International Charter School,53,International,"Int'l Charter, International",Elementary School,334 Pleasant Street,Pawtucket,02860,Charter School,Core City (5),Core City (6),Non MC School,Non MC Elem School,K - 05,ELEM,,
26109,Jacqueline Walsh (HS),Jacqueline M. Walsh School,26,Pawtucket,"Jacqueline Walsh (HS), Pawtucket",High School,172 Exchange Street,Pawtucket,02860,Non-Charter,Core City (5),Core City (6),Non MC School,Non MC Elem School,09 - 12,,,HIGH
09102,Eldredge,James H. Eldredge School,09,East Greenwich,"Eldredge, East Greenwich",Elementary School,First Avenue,East Greenwich,02818,Non-Charter,Non Core City (5),Non Core City (6),Non MC School,Non MC Elem School,04 - 06,ELEM,,
24107,McGuire,James L. McGuire School,24,North Providence,"McGuire, North Providence",Elementary School,55 Central Avenue,North Providence,02911,Non-Charter,Non Core City (5),Non Core City (6),Non MC School,Non MC Elem School,K - 05,ELEM,,
10111,Oldham,James R. D. Oldham School,10,East Providence,"Oldham, East Providence",Elementary School,640 Bullocks Point Avenue,East Providence,02915,Non-Charter,Non Core City (5),Non Core City (6),Non MC School,Non MC Elem School,K - 05,ELEM,,
15101,Jamestown-Lawn MS,Jamestown School-Lawn,15,Jamestown,"Jamestown-Lawn MS, Jamestown",Middle School,55 Lawn Avenue,Jamestown,02835,Non-Charter,Non Core City (5),Non Core City (6),Non MC School,Non MC Elem School,05 - 08,,MIDDLE,
15102,Jamestown-Melrose,Jamestown School-Melrose,15,Jamestown,"Jamestown-Melrose, Jamestown",Elementary School,76 Melrose Avenue,Jamestown,02835,Non-Charter,Non Core City (5),Non Core City (6),Non MC School,Non MC Elem School,PK - 04,ELEM,,
38107,Deering MS,John F. Deering Middle,38,West Warwick,"Deering MS, West Warwick",Middle School,2 Webster Knight Drive,West Warwick,02893,Non-Charter,Non Core City (5),Core City (6),Non MC School,Non MC Elem School,05 - 08,,MIDDLE,
38104,Horgan,John F. Horgan School,38,West Warwick,"Horgan, West Warwick",Elementary School,124 Providence Street,West Warwick,02893,Non-Charter,Non Core City (5),Core City (6),Non MC School,Non MC Elem School,PK - 05,ELEM,,
08110,McLaughlin,John J. McLaughlin Cumberland,08,Cumberland,"McLaughlin, Cumberland",Elementary School,205 Manville Hill Road,Cumberland,02864,Non-Charter,Non Core City (5),Non Core City (6),Non MC School,Non MC Elem School,01 - 05,ELEM,,
16112,Johnston Senior HS,Johnston Senior High,16,Johnston,"Johnston Senior HS, Johnston",High School,345 Cherry Hill Road,Johnston,02919,Non-Charter,Non Core City (5),Non Core City (6),Non MC School,Non MC Elem School,09 - 12,,,HIGH
24108,Whelan,Joseph A. Whelan School,24,North Providence,"Whelan, North Providence",Elementary School,1440 Mineral Spring Avenue,North Providence,02904,Non-Charter,Non Core City (5),Non Core City (6),Non MC School,Non MC Elem School,K - 05,ELEM,,
19117,Gaudet Academy,Joseph Gaudet Academy,19,Middletown,"Gaudet Academy, Middletown",Elementary School,1113 Aquidneck Ave.,Middletown,02842,Non-Charter,Non Core City (5),Non Core City (6),Non MC School,Non MC Elem School,04 - 04,ELEM,,
19114,Gaudet MS,Joseph H. Gaudet School,19,Middletown,"Gaudet MS, Middletown",Middle School,1113 Aquidneck Avenue,Middletown,02842,Non-Charter,Non Core City (5),Non Core City (6),Non MC School,Non MC Elem School,05 - 08,,MIDDLE,
26103,Jenks Jr High,Joseph Jenks Junior High,26,Pawtucket,"Jenks Jr High, Pawtucket",Middle School,350 Division Street,Pawtucket,02860,Non-Charter,Core City (5),Core City (6),Non MC School,Non MC Elem School,07 - 08,,MIDDLE,
08115,McCourt MS,Joseph L. McCourt MS,08,Cumberland,"McCourt MS, Cumberland",Middle School,45 Highland Avenue,Cumberland,02864,Non-Charter,Non Core City (5),Non Core City (6),Non MC School,Non MC Elem School,06 - 08,,MIDDLE,
10113,Kent Heights,Kent Heights School,10,East Providence,"Kent Heights, East Providence",Elementary School,2680 Pawtucket Avenue,East Providence,02914,Non-Charter,Non Core City (5),Non Core City (6),Non MC School,Non MC Elem School,K - 05,ELEM,,
39128,Coleman,Kevin K. Coleman School,39,Woonsocket,"Coleman, Woonsocket",Elementary School,96 Second Avenue,Woonsocket,02895,Non-Charter,Core City (5),Core City (6),Non MC School,Non MC Elem School,03 - 05,ELEM,,
96112,Kickemuit MS,Kickemuit Middle School,96,Bristol Warren,"Kickemuit MS, Bristol Warren",Middle School,525 Child Street,Warren,02885,Non-Charter,Non Core City (5),Non Core City (6),Non MC School,Non MC Elem School,06 - 08,,MIDDLE,
32601,Kingston Hill Academy,Kingston Hill Academy,52,Kingston Hill,"Kingston Hill Academy, Kingston Hill",Elementary School,850 Stony Fort Rd,South Kingstown,02874,Charter School,Non Core City (5),Non Core City (6),Non MC School,Non MC Elem School,K - 05,ELEM,,
39120,Savoie,Leo A. Savoie School,39,Woonsocket,"Savoie, Woonsocket",Elementary School,990 Mendon Road,Woonsocket,02895,Non-Charter,Core City (5),Core City (6),Non MC School,Non MC Elem School,K - 05,ELEM,,
28157,Lillian Feinstein,Lillian Feinstein El. School,28,Providence,"Lillian Feinstein, Providence",Elementary School,159 Sackett Street,Providence,02907,Non-Charter,Core City (5),Core City (6),Making Connections School,Making Connections Elem School,K - 05,ELEM,,
17109,Lincoln Central,Lincoln Central Elem.,17,Lincoln,"Lincoln Central, Lincoln",Elementary School,1081 Great Road,Lincoln,02865,Non-Charter,Non Core City (5),Non Core City (6),Non MC School,Non MC Elem School,02 - 05,ELEM,,
17117,Lincoln MS,Lincoln Middle School,17,Lincoln,"Lincoln MS, Lincoln",Middle School,152 Jenckes Hill Road,Lincoln,02865,Non-Charter,Non Core City (5),Non Core City (6),Non MC School,Non MC Elem School,06 - 08,,MIDDLE,
17110,Lincoln Senior HS,Lincoln Senior High School,17,Lincoln,"Lincoln Senior HS, Lincoln",High School,135 Old River Road,Lincoln,02865,Non-Charter,Non Core City (5),Non Core City (6),Non MC School,Non MC Elem School,09 - 12,,,HIGH
35123,Lippitt,Lippitt School,35,Warwick,"Lippitt, Warwick",Elementary School,30 Almy Street,Warwick,02886,Non-Charter,Non Core City (5),Non Core City (6),Non MC School,Non MC Elem School,K - 06,ELEM,,
17106,Lonsdale,Lonsdale Elementary,17,Lincoln,"Lonsdale, Lincoln",Elementary School,270 River Road,Lincoln,02865,Non-Charter,Non Core City (5),Non Core City (6),Non MC School,Non MC Elem School,02 - 05,ELEM,,
38105,Quinn,Maisie E. Quinn School,38,West Warwick,"Quinn, West Warwick",Elementary School,1 Brown Street,West Warwick,02893,Non-Charter,Non Core City (5),Core City (6),Non MC School,Non MC Elem School,PK - 05,ELEM,,
24103,Marieville,Marieville School,24,North Providence,"Marieville, North Providence",Elementary School,1135 Mineral Spring Avenue,North Providence,02904,Non-Charter,Non Core City (5),Non Core City (6),Non MC School,Non MC Elem School,PK - 05,ELEM,,
28163,King,Martin Luther King El. School,28,Providence,"King, Providence",Elementary School,35 Camp Street,Providence,02906,Non-Charter,Core City (5),Core City (6),Non MC School,Non MC Elem School,PK - 06,ELEM,,
28160,Fogarty,Mary E. Fogarty El. School,28,Providence,"Fogarty, Providence",Elementary School,199 Oxford Street,Providence,02905,Non-Charter,Core City (5),Core City (6),Making Connections School,Making Connections Elem School,PK - 05,ELEM,,
32113,Matunuck,Matunuck School,32,South Kingstown,"Matunuck, South Kingstown",Elementary School,380 Matunuck Beach Road,South Kingstown,02879,Non-Charter,Non Core City (5),Non Core City (6),Non MC School,Non MC Elem School,K - 05,ELEM,,
09107,Meadowbrook Farms,Meadowbrook Farms School,09,East Greenwich,"Meadowbrook Farms, East Greenwich",Elementary School,2 Chestnut Drive,East Greenwich,02818,Non-Charter,Non Core City (5),Non Core City (6),Non MC School,Non MC Elem School,PK - 03,ELEM,,
10121,Meadowcrest EC,Meadowcrest Early Childhood,10,East Providence,"Meadowcrest EC, East Providence",Elementary School,60 Bart Drive,East Providence,02915,Non-Charter,Non Core City (5),Non Core City (6),Non MC School,Non MC Elem School,PK - PK,,,
27111,Melville,Melville School,27,Portsmouth,"Melville, Portsmouth",Elementary School,1351 West Main Road,Portsmouth,02871,Non-Charter,Non Core City (5),Non Core City (6),Non MC School,Non MC Elem School,PK - 05,ELEM,,
97103,Metcalf,Metcalf School,97,Exeter-W. Greenwich,"Metcalf, Exeter-W. Greenwich",Elementary School,30 Nooseneck Hill Road,Exeter,02822,Non-Charter,Non Core City (5),Non Core City (6),Non MC School,Non MC Elem School,03 - 06,ELEM,,
28703,The MET (HS),Metropolitan Career Tech Ctr,60,MET SCHOOL,"The MET (HS), MET SCHOOL",High School,325 Public Street,Providence,02905,Non-Charter,Core City (5),Core City (6),Non MC School,Non MC Elem School,09 - 12,,,HIGH
19111,Middletown HS,Middletown High School,19,Middletown,"Middletown HS, Middletown",High School,130 Valley Road,Middletown,02842,Non-Charter,Non Core City (5),Non Core City (6),Non MC School,Non MC Elem School,09 - 12,,,HIGH
97102,Lineham,Mildred E. Lineham School,97,Exeter-W. Greenwich,"Lineham, Exeter-W. Greenwich",Elementary School,859 Nooseneck Hill Road,West Greenwich,02817,Non-Charter,Non Core City (5),Non Core City (6),Non MC School,Non MC Elem School,PK - K,ELEM,,
28150,Mt Pleasant HS,Mount Pleasant High,28,Providence,"Mt Pleasant HS, Providence",High School,434 Mount Pleasant Avenue,Providence,02908,Non-Charter,Core City (5),Core City (6),Non MC School,Non MC Elem School,09 - 12,,,HIGH
96107,Mt. Hope HS,Mt. Hope High School,96,Bristol Warren,"Mt. Hope HS, Bristol Warren",High School,199 Chestnut Street,Bristol,02809,Non-Charter,Non Core City (5),Non Core City (6),Non MC School,Non MC Elem School,09 - 12,,,HIGH
10125,Myron Francis,Myron J. Francis Elementary,10,East Providence,"Myron Francis, East Providence",Elementary School,64 Bourne Avenue,East Providence,02916,Non-Charter,Non Core City (5),Non Core City (6),Non MC School,Non MC Elem School,K - 05,ELEM,,
20102,Narragansett Elem,Narragansett Elementary,20,Narragansett,"Narragansett Elem, Narragansett",Elementary School,55 Mumford Road,Narragansett,02882,Non-Charter,Non Core City (5),Non Core City (6),Non MC School,Non MC Elem School,PK - 04,ELEM,,
20104,Narragansett HS,Narragansett High School,20,Narragansett,"Narragansett HS, Narragansett",High School,245 South Pier Road,Narragansett,02882,Non-Charter,Non Core City (5),Non Core City (6),Non MC School,Non MC Elem School,09 - 12,,,HIGH
20103,Narragansett Pier MS,Narragansett Pier School,20,Narragansett,"Narragansett Pier MS, Narragansett",Middle School,235 South Pier Road,Narragansett,02882,Non-Charter,Non Core City (5),Non Core City (6),Non MC School,Non MC Elem School,05 - 08,,MIDDLE,
28143,Bishop MS,Nathan Bishop Middle,28,Providence,"Bishop MS, Providence",Middle School,101 Sessions Street,Providence,02906,Non-Charter,Core City (5),Core City (6),Non MC School,Non MC Elem School,06 - 08,,MIDDLE,
28145,Greene MS,Nathanael Greene Middle,28,Providence,"Greene MS, Providence",Middle School,721 Chalkstone Avenue,Providence,02908,Non-Charter,Core City (5),Core City (6),Non MC School,Non MC Elem School,06 - 08,,MIDDLE,
26111,Nathanael Greene,Nathanael Greene School,26,Pawtucket,"Nathanael Greene, Pawtucket",Elementary School,285 Smithfield Avenue,Pawtucket,02860,Non-Charter,Core City (5),Core City (6),Non MC School,Non MC Elem School,K - 06,ELEM,,
01104,Nayatt,Nayatt School,01,Barrington,"Nayatt, Barrington",Elementary School,400 Nayatt Rd,Barrington,02806,Non-Charter,Non Core City (5),Non Core City (6),Non MC School,Non MC Elem School,PK - 03,ELEM,,
07135,NEL/CPS HS,NEL/CPS Construction Career,07,Cranston,"NEL/CPS HS, Cranston",High School,4 Sharpe Drive,Cranston,02920,Charter School,Non Core City (5),Non Core City (6),Non MC School,Non MC Elem School,09 - 12,,,HIGH
16111,Ferri MS,Nicholas A. Ferri Middle,16,Johnston,"Ferri MS, Johnston",Middle School,10 Memorial Avenue,Johnston,02919,Non-Charter,Non Core City (5),Non Core City (6),Non MC School,Non MC Elem School,06 - 08,,MIDDLE,
08116,N Cumberland MS,North Cumberland Middle,08,Cumberland,"N Cumberland MS, Cumberland",Middle School,400 Nate Whipple Highway,Cumberland,02864,Non-Charter,Non Core City (5),Non Core City (6),Non MC School,Non MC Elem School,06 - 08,,MIDDLE,
23108,North Kingstown Senior HS,North Kingstown Sr. High,23,North Kingstown,"North Kingstown Senior HS, North Kingstown",High School,150 Fairway Drive,North Kingstown,02852,Non-Charter,Non Core City (5),Non Core City (6),Non MC School,Non MC Elem School,09 - 12,,,HIGH
24105,North Providence HS,North Providence High,24,North Providence,"North Providence HS, North Providence",High School,1828 Mineral Spring Avenue,North Providence,02904,Non-Charter,Non Core City (5),Non Core City (6),Non MC School,Non MC Elem School,09 - 12,,,HIGH
30106,N Scituate Sch,North Scituate School,30,Scituate,"N Scituate Sch, Scituate",Elementary School,46 Institute Lane,Scituate,02857,Non-Charter,Non Core City (5),Non Core City (6),Non MC School,Non MC Elem School,PK - 05,ELEM,,
25110,North Smithfield Elem,North Smithfield Elementary,25,North Smithfield,"North Smithfield Elem, North Smithfield",Elementary School,2214 Providence Pike,North Smithfield,02896,Non-Charter,Non Core City (5),Non Core City (6),Non MC School,Non MC Elem School,PK - 02,ELEM,,
25108,North Smithfield HS,North Smithfield HS,25,North Smithfield,"North Smithfield HS, North Smithfield",High School,412 Greenville Road,North Smithfield,02896,Non-Charter,Non Core City (5),Non Core City (6),Non MC School,Non MC Elem School,09 - 12,,,HIGH
25109,North Smithfield MS,North Smithfield MS,25,North Smithfield,"North Smithfield MS, North Smithfield",Middle School,1850 Providence Pike,North Smithfield,02896,Non-Charter,Non Core City (5),Non Core City (6),Non MC School,Non MC Elem School,06 - 08,,MIDDLE,
17114,N Early Learning Ctr,Northern Early Learning Ctr,17,Lincoln,"N Early Learning Ctr, Lincoln",Elementary School,315 New River Road,Lincoln,02838,Non-Charter,Non Core City (5),Non Core City (6),Non MC School,Non MC Elem School,PK - 01,ELEM,,
17113,N Lincoln Elem,Northern Lincoln Elem.,17,Lincoln,"N Lincoln Elem, Lincoln",Elementary School,315 New River Road,Lincoln,02838,Non-Charter,Non Core City (5),Non Core City (6),Non MC School,Non MC Elem School,02 - 05,ELEM,,
35101,Norwood,Norwood School,35,Warwick,"Norwood, Warwick",Elementary School,266 Norwood Avenue,Warwick,02888,Non-Charter,Non Core City (5),Non Core City (6),Non MC School,Non MC Elem School,K - 06,ELEM,,
07103,Oak Lawn,Oak Lawn School,07,Cranston,"Oak Lawn, Cranston",Elementary School,36 Stoneham Street,Cranston,02920,Non-Charter,Non Core City (5),Non Core City (6),Non MC School,Non MC Elem School,PK - 06,ELEM,,
35104,Oakland Beach,Oakland Beach School,35,Warwick,"Oakland Beach, Warwick",Elementary School,383 Oakland Beach Avenue,Warwick,02889,Non-Charter,Non Core City (5),Non Core City (6),Non MC School,Non MC Elem School,PK - 06,ELEM,,
31104,Old County Rd,Old County Road School,31,Smithfield,"Old County Rd, Smithfield",Elementary School,200 Old County Road,Smithfield,02917,Non-Charter,Non Core City (5),Non Core City (6),Non MC School,Non MC Elem School,K - 05,ELEM,,
07136,Orchard Farms,Orchard Farms El. School,07,Cranston,"Orchard Farms, Cranston",Elementary School,1555 Scituate Avenue,Cranston,02921,Non-Charter,Non Core City (5),Non Core City (6),Non MC School,Non MC Elem School,PK - 06,ELEM,,
10124,Orlo Ave,Orlo Avenue School,10,East Providence,"Orlo Ave, East Providence",Elementary School,25 Orlo Avenue,East Providence,02914,Non-Charter,Non Core City (5),Non Core City (6),Non MC School,Non MC Elem School,K - 05,ELEM,,
35132,Park,Park School,35,Warwick,"Park, Warwick",Elementary School,40 Asylum Road,Warwick,02886,Non-Charter,Non Core City (5),Non Core City (6),Non MC School,Non MC Elem School,K - 06,ELEM,,
07123,Park View MS,Park View Middle School,07,Cranston,"Park View MS, Cranston",Middle School,25 Park View Boulevard,Cranston,02910,Non-Charter,Non Core City (5),Non Core City (6),Non MC School,Non MC Elem School,07 - 08,,MIDDLE,
28602,Cuffee,Paul Cuffee Charter School,51,Paul Cuffee,"Cuffee, Paul Cuffee",Elementary and Middle Schoo,459 Promenade Street,Providence,02908,Charter School,Core City (5),Core City (6),Non MC School,Non MC Elem School,K - 08,ELEM,,
32107,Peace Dale,Peace Dale School,32,South Kingstown,"Peace Dale, South Kingstown",Elementary School,109 Kersey Road,South Kingstown,02879,Non-Charter,Non Core City (5),Non Core City (6),Non MC School,Non MC Elem School,K - 05,ELEM,,
28146,Perrry MS,Perry Middle School,28,Providence,"Perrry MS, Providence",Middle School,370 Hartford Avenue,Providence,02909,Non-Charter,Core City (5),Core City (6),Non MC School,Non MC Elem School,06 - 08,,MIDDLE,
35134,Pilgrim HS,Pilgrim High School,35,Warwick,"Pilgrim HS, Warwick",High School,111 Pilgrim Parkway,Warwick,02888,Non-Charter,Non Core City (5),Non Core City (6),Non MC School,Non MC Elem School,09 - 12,,,HIGH
28165,Pleasant View,Pleasant View School,28,Providence,"Pleasant View, Providence",Elementary School,50 Obadiah Brown Road,Providence,02909,Non-Charter,Core City (5),Core City (6),Non MC School,Non MC Elem School,PK - 05,ELEM,,
33107,Pocasset,Pocasset School,33,Tiverton,"Pocasset, Tiverton",Elementary School,242 Main Road,Tiverton,02878,Non-Charter,Non Core City (5),Non Core City (6),Non MC School,Non MC Elem School,PK - 04,ELEM,,
99102,Ponaganset HS,Ponaganset High School,99,Foster-Glocester,"Ponaganset HS, Foster-Glocester",High School,137 Anan Wade Road,Glocester,02857,Non-Charter,Non Core City (5),Non Core City (6),Non MC School,Non MC Elem School,09 - 12,,,HIGH
99101,Ponaganset MS,Ponaganset Middle School,99,Foster-Glocester,"Ponaganset MS, Foster-Glocester",Middle School,7 Rustic Hill Road,Glocester,02857,Non-Charter,Non Core City (5),Non Core City (6),Non MC School,Non MC Elem School,06 - 08,,MIDDLE,
27106,Portsmouth HS,Portsmouth High School,27,Portsmouth,"Portsmouth HS, Portsmouth",High School,Education Lane,Portsmouth,02871,Non-Charter,Non Core City (5),Non Core City (6),Non MC School,Non MC Elem School,09 - 12,,,HIGH
27112,Portsmouth MS,Portsmouth Middle School,27,Portsmouth,"Portsmouth MS, Portsmouth",Middle School,125 Jepson Lane,Portsmouth,02871,Non-Charter,Non Core City (5),Non Core City (6),Non MC School,Non MC Elem School,05 - 08,,MIDDLE,
26110,Potter-Burns,Potter-Burns School,26,Pawtucket,"Potter-Burns, Pawtucket",Elementary School,973 Newport Avenue,Pawtucket,02861,Non-Charter,Core City (5),Core City (6),Non MC School,Non MC Elem School,K - 06,ELEM,,
01103,Primrose Hill,Primrose Hill School,01,Barrington,"Primrose Hill, Barrington",Elementary School,Middle Highway,Barrington,02806,Non-Charter,Non Core City (5),Non Core City (6),Non MC School,Non MC Elem School,PK - 03,ELEM,,
28188,PAIS (HS),Providence Academy,28,Providence,"PAIS (HS), Providence",High School,182 Thurbers Avenue,Providence,02905,Non-Charter,Core City (5),Core City (6),Non MC School,Non MC Elem School,09 - 12,,,HIGH
28193,PCTA (HS),Providence Career Technical,28,Providence,"PCTA (HS), Providence",High School,91 Fricker street,Providence,02903,Non-Charter,Core City (5),Core City (6),Making Connections School,Non MC Elem School,09 - 12,,,HIGH
28702,RI School for the Deaf,R.I. School for the Deaf,50,RI Deaf,"RI School for the Deaf, RI Deaf",Elementary Middle High,1 Corliss Park,Providence,02908,Non-Charter,Core City (5),Core City (6),Non MC School,Non MC Elem School,PK - 12,ELEM,MIDDLE,HIGH
33105,Ranger,Ranger School,33,Tiverton,"Ranger, Tiverton",Elementary School,278 North Brayton Road,Tiverton,02878,Non-Charter,Non Core City (5),Non Core City (6),Non MC School,Non MC Elem School,K - 04,ELEM,,
31108,LaPerche,Raymond LaPerche School,31,Smithfield,"LaPerche, Smithfield",Elementary School,11 Limerock Road,Smithfield,02917,Non-Charter,Non Core City (5),Non Core City (6),Non MC School,Non MC Elem School,K - 05,ELEM,,
28142,Reservoir Ave,Reservoir Avenue School,28,Providence,"Reservoir Ave, Providence",Elementary School,156 Reservoir Avenue,Providence,02907,Non-Charter,Core City (5),Core City (6),Non MC School,Non MC Elem School,K - 05,ELEM,,
98105,Richmond Elem,Richmond Elementary School,98,Chariho,"Richmond Elem, Chariho",Elementary School,190 Kingstown Road,Richmond,02898,Non-Charter,Non Core City (5),Non Core City (6),Non MC School,Non MC Elem School,PK - 04,ELEM,,
10122,Riverside MS,Riverside Middle School,10,East Providence,"Riverside MS, East Providence",Middle School,179 Forbes Street,East Providence,02915,Non-Charter,Non Core City (5),Non Core City (6),Non MC School,Non MC Elem School,06 - 08,,MIDDLE,
28138,Kennedy,Robert F. Kennedy El. School,28,Providence,"Kennedy, Providence",Elementary School,195 Nelson Street,Providence,02908,Non-Charter,Core City (5),Core City (6),Non MC School,Non MC Elem School,K - 06,ELEM,,
28156,Bailey,"Robert L. Bailey, IV",28,Providence,"Bailey, Providence",Elementary School,65 Gordon Avenue,Providence,02905,Non-Charter,Core City (5),Core City (6),Making Connections School,Making Connections Elem School,PK - 05,ELEM,,
04105,Robertson,Robertson School,04,Central Falls,"Robertson, Central Falls",Elementary School,135 Hunt St,Central Falls,02863,Non-Charter,Core City (5),Core City (6),Non MC School,Non MC Elem School,K - 05,ELEM,,
35121,Robertson,Robertson School,35,Warwick,"Robertson, Warwick",Elementary School,70 Nausauket Road,Warwick,02886,Non-Charter,Non Core City (5),Non Core City (6),Non MC School,Non MC Elem School,K - 06,ELEM,,
96106,Rockwell,Rockwell School,96,Bristol Warren,"Rockwell, Bristol Warren",Elementary School,1225 Hope Street,Bristol,02809,Non-Charter,Non Core City (5),Non Core City (6),Non MC School,Non MC Elem School,K - 05,ELEM,,
28147,Williams MS,Roger Williams Middle,28,Providence,"Williams MS, Providence",Middle School,278 Thurbers Avenue,Providence,02905,Non-Charter,Core City (5),Core City (6),Making Connections School,Non MC Elem School,06 - 08,,MIDDLE,
21111,Rogers HS,Rogers High School,21,Newport,"Rogers HS, Newport",High School,15 Wickham Road,Newport,02840,Non-Charter,Core City (5),Core City (6),Non MC School,Non MC Elem School,09 - 12,,,HIGH
26106,Slater Jr High,Samuel Slater Junior High,26,Pawtucket,"Slater Jr High, Pawtucket",Middle School,281 Mineral Spring Avenue,Pawtucket,02860,Non-Charter,Core City (5),Core City (6),Non MC School,Non MC Elem School,07 - 08,,MIDDLE,
28172,Bridgham MS,Samuel W. Bridgham Middle,28,Providence,"Bridgham MS, Providence",Middle School,1655 Westminster Street,Providence,02909,Non-Charter,Core City (5),Core City (6),Making Connections School,Non MC Elem School,06 - 08,,MIDDLE,
16108,Barnes,Sarah Dyer Barnes School,16,Johnston,"Barnes, Johnston",Elementary School,24 Barnes Avenue,Johnston,02919,Non-Charter,Non Core City (5),Non Core City (6),Non MC School,Non MC Elem School,01 - 05,ELEM,,
17112,Saylesville,Saylesville Elementary,17,Lincoln,"Saylesville, Lincoln",Elementary School,50 Woodland Street,Lincoln,02865,Non-Charter,Non Core City (5),Non Core City (6),Non MC School,Non MC Elem School,02 - 05,ELEM,,
30104,Scituate HS,Scituate High School,30,Scituate,"Scituate HS, Scituate",High School,94 Trimtown Road,Scituate,02857,Non-Charter,Non Core City (5),Non Core City (6),Non MC School,Non MC Elem School,09 - 12,,,HIGH
30105,Scituate MS,Scituate Middle School,30,Scituate,"Scituate MS, Scituate",Middle School,94 Trimtown Road,Scituate,02857,Non-Charter,Non Core City (5),Non Core City (6),Non MC School,Non MC Elem School,06 - 08,,MIDDLE,
35135,Scott,Scott School,35,Warwick,"Scott, Warwick",Elementary School,833 Centerville Road,Warwick,02886,Non-Charter,Non Core City (5),Non Core City (6),Non MC School,Non MC Elem School,K - 06,ELEM,,
04602,Segue Inst,Segue Inst for Learning,46,Segue Inst for Learning,"Segue Inst, Segue Inst for Learning",Middle School,361 Cowden St,Central Falls,02863,Charter School,Core City (5),Core City (6),Non MC School,Non MC Elem School,06 - 08,,MIDDLE,
28180,Sgt Cornel Young Jr,"Sergeant Cornel Young, Jr.",28,Providence,"Sgt Cornel Young Jr, Providence",Elementary School,674 Prairie Avenue,Providence,02905,Non-Charter,Core City (5),Core City (6),Making Connections School,Making Connections Elem School,K - 05,ELEM,,
26118,Shea HS,Shea High School,26,Pawtucket,"Shea HS, Pawtucket",High School,485 East Avenue,Pawtucket,02860,Non-Charter,Core City (5),Core City (6),Non MC School,Non MC Elem School,09 - 12,,,HIGH
35127,Sherman,Sherman School,35,Warwick,"Sherman, Warwick",Elementary School,120 Killey Avenue,Warwick,02889,Non-Charter,Non Core City (5),Non Core City (6),Non MC School,Non MC Elem School,K - 06,ELEM,,
10123,Silver Spring,Silver Spring School,10,East Providence,"Silver Spring, East Providence",Elementary School,120 Silver Spring Avenue,East Providence,02915,Non-Charter,Non Core City (5),Non Core City (6),Non MC School,Non MC Elem School,K - 05,ELEM,,
31107,Smithfield HS,Smithfield High School,31,Smithfield,"Smithfield HS, Smithfield",High School,90 Pleasant View Avenue,Smithfield,02917,Non-Charter,Non Core City (5),Non Core City (6),Non MC School,Non MC Elem School,09 - 12,,,HIGH
32108,South Kinstown HS,South Kingstown High,32,South Kingstown,"South Kinstown HS, South Kingstown",High School,215 Columbia Street,South Kingstown,02879,Non-Charter,Non Core City (5),Non Core City (6),Non MC School,Non MC Elem School,09 - 12,,,HIGH
01109,Sowams,Sowams Elementary School,01,Barrington,"Sowams, Barrington",Elementary School,364 Sowams Rd,Barrington,02806,Non-Charter,Non Core City (5),Non Core City (6),Non MC School,Non MC Elem School,K - 03,ELEM,,
36111,Springbrook,Springbrook Elementary School,36,Westerly,"Springbrook, Westerly",Elementary School,39 Springbrook Road,Westerly,02891,Non-Charter,Non Core City (5),Non Core City (6),Non MC School,Non MC Elem School,K - 04,ELEM,,
07120,Stadium,Stadium School,07,Cranston,"Stadium, Cranston",Elementary School,100 Crescent Avenue,Cranston,02910,Non-Charter,Non Core City (5),Non Core City (6),Non MC School,Non MC Elem School,PK - 06,ELEM,,
36106,State St,State Street School,36,Westerly,"State St, Westerly",Elementary School,25 State Street,Westerly,02891,Non-Charter,Non Core City (5),Non Core City (6),Non MC School,Non MC Elem School,K - 04,ELEM,,
03105,Steere Farm,Steere Farm Elementary School,03,Burrillville,"Steere Farm, Burrillville",Elementary School,915 Steere Farm Road,Burrillville,02859,Non-Charter,Non Core City (5),Non Core City (6),Non MC School,Non MC Elem School,PK - 05,ELEM,,
24106,Olney,Stephen Olney School,24,North Providence,"Olney, North Providence",Elementary School,1378 Douglas Avenue,North Providence,02904,Non-Charter,Non Core City (5),Non Core City (6),Non MC School,Non MC Elem School,K - 05,ELEM,,
07127,Stone Hill,Stone Hill School,07,Cranston,"Stone Hill, Cranston",Elementary School,21 Village Avenue,Cranston,02920,Non-Charter,Non Core City (5),Non Core City (6),Non MC School,Non MC Elem School,PK - 06,ELEM,,
23114,Stony Lane,Stony Lane El. School,23,North Kingstown,"Stony Lane, North Kingstown",Elementary School,825 Stony Lane,North Kingstown,02852,Non-Charter,Non Core City (5),Non Core City (6),Non MC School,Non MC Elem School,K - 03,ELEM,,
21110,Sullivan,Sullivan School,21,Newport,"Sullivan, Newport",Elementary School,35 Dexter Street,Newport,02840,Non-Charter,Core City (5),Core City (6),Non MC School,Non MC Elem School,PK - 04,ELEM,,
23113,Quidnesset,Suzanne M. Henseler Quidnesse,23,North Kingstown,"Quidnesset, North Kingstown",Elementary School,166 Mark Drive,North Kingstown,02852,Non-Charter,Non Core City (5),Non Core City (6),Non MC School,Non MC Elem School,04 - 05,ELEM,,
28178,Textron CofC HS,Textron Chamber of Commerce,28,Providence,"Textron CofC HS, Providence",High School,130 Broadway,Providence,02903,Charter School,Core City (5),Core City (6),Non MC School,Non MC Elem School,09 - 12,,,HIGH
23601,Compass,The Compass School,55,Compass,"Compass, Compass",Elementary and Middle Schoo,537 Old North Rd,North Kingstown,02881,Charter School,Non Core City (5),Non Core City (6),Non MC School,Non MC Elem School,K - 08,ELEM,,
04601,The Learning Community,The Learning Community,59,Learning,"The Learning Community, Learning",Elementary School,21 Lincoln Ave,Central Falls,02863,Charter School,Core City (5),Core City (6),Non MC School,Non MC Elem School,K - 06,ELEM,,
16103,Thornton,Thornton School,16,Johnston,"Thornton, Johnston",Elementary School,4 School Street,Johnston,02919,Non-Charter,Non Core City (5),Non Core City (6),Non MC School,Non MC Elem School,01 - 05,ELEM,,
28170,Times2,Times2 Academy,28,Providence,"Times2, Providence",Elementary Middle High,50 Fillmore St,Providence,02908,Charter School,Core City (5),Core City (6),Non MC School,Non MC Elem School,K - 12,ELEM,MIDDLE,HIGH
06116,Tiogue,Tiogue School,06,Coventry,"Tiogue, Coventry",Elementary School,170 East Shore Drive,Coventry,02816,Non-Charter,Non Core City (5),Non Core City (6),Non MC School,Non MC Elem School,K - 05,ELEM,,
33108,Tiverton HS,Tiverton High School,33,Tiverton,"Tiverton HS, Tiverton",High School,100 North Brayton Road,Tiverton,02878,Non-Charter,Non Core City (5),Non Core City (6),Non MC School,Non MC Elem School,09 - 12,,,HIGH
33110,Tiverton MS,Tiverton Middle School,33,Tiverton,"Tiverton MS, Tiverton",Middle School,10 Quintal Drive,Tiverton,02878,Non-Charter,Non Core City (5),Non Core City (6),Non MC School,Non MC Elem School,05 - 08,,MIDDLE,
35138,Toll Gate HS,Toll Gate High School,35,Warwick,"Toll Gate HS, Warwick",High School,575 Centerville Road,Warwick,02886,Non-Charter,Non Core City (5),Non Core City (6),Non MC School,Non MC Elem School,09 - 12,,,HIGH
21114,Underwood,Underwood School,21,Newport,"Underwood, Newport",Elementary School,90 Harrison Avenue,Newport,02840,Non-Charter,Core City (5),Core City (6),Non MC School,Non MC Elem School,K - 04,ELEM,,
28167,UCAP MS,Urban Collaborative Program,49,UCAP,"UCAP MS, UCAP",Middle School,75 Carpenter St,Providence,02903,Non-Charter,Core City (5),Core City (6),Non MC School,Non MC Elem School,07 - 08,,MIDDLE,
28151,Gregorian,Vartan Gregorian El. School,28,Providence,"Gregorian, Providence",Elementary School,455 Wickenden Street,Providence,02903,Non-Charter,Core City (5),Core City (6),Non MC School,Non MC Elem School,PK - 05,ELEM,,
28130,Veazie St,Veazie Street School,28,Providence,"Veazie St, Providence",Elementary School,211 Veazie Street,Providence,02904,Non-Charter,Core City (5),Core City (6),Non MC School,Non MC Elem School,K - 06,ELEM,,
04106,Veterans Mem.,Veterans Memorial Elementary,04,Central Falls,"Veterans Mem., Central Falls",Elementary School,150 Fuller Ave,Central Falls,02863,Non-Charter,Core City (5),Core City (6),Non MC School,Non MC Elem School,PK - 05,ELEM,,
31109,Gallagher MS,Vincent J. Gallagher Middle,31,Smithfield,"Gallagher MS, Smithfield",Middle School,10 Indian Run Trail,Smithfield,02917,Non-Charter,Non Core City (5),Non Core City (6),Non MC School,Non MC Elem School,06 - 08,,MIDDLE,
07116,Dutemple,W. R. Dutemple School,07,Cranston,"Dutemple, Cranston",Elementary School,32 Garden Street,Cranston,02910,Non-Charter,Non Core City (5),Non Core City (6),Non MC School,Non MC Elem School,PK - 06,ELEM,,
10114,Waddington,Waddington School,10,East Providence,"Waddington, East Providence",Elementary School,101 Legion Way,East Providence,02915,Non-Charter,Non Core City (5),Non Core City (6),Non MC School,Non MC Elem School,K - 05,ELEM,,
38111,Wakefield Hills,Wakefield Hills El. School,38,West Warwick,"Wakefield Hills, West Warwick",Elementary School,505 Wakefield Street,West Warwick,02893,Non-Charter,Non Core City (5),Core City (6),Non MC School,Non MC Elem School,PK - 05,ELEM,,
32103,Wakefield,Wakefield School,32,South Kingstown,"Wakefield, South Kingstown",Elementary School,101 High Street,South Kingstown,02879,Non-Charter,Non Core City (5),Non Core City (6),Non MC School,Non MC Elem School,K - 05,ELEM,,
35133,Warwick Neck,Warwick Neck School,35,Warwick,"Warwick Neck, Warwick",Elementary School,155 Rocky Point Avenue,Warwick,02889,Non-Charter,Non Core City (5),Non Core City (6),Non MC School,Non MC Elem School,K - 06,ELEM,,
35130,Warwick Vets HS,Warwick Veterans High,35,Warwick,"Warwick Vets HS, Warwick",High School,2401 West Shore Road,Warwick,02889,Non-Charter,Non Core City (5),Non Core City (6),Non MC School,Non MC Elem School,09 - 12,,,HIGH
06121,Washington Oak,Washington Oak School,06,Coventry,"Washington Oak, Coventry",Elementary School,801 Read School House Road,Coventry,02816,Non-Charter,Non Core City (5),Non Core City (6),Non MC School,Non MC Elem School,PK - 05,ELEM,,
97101,Wawaloam,Wawaloam School,97,Exeter-W. Greenwich,"Wawaloam, Exeter-W. Greenwich",Elementary School,100 Victory Highway,Exeter,02822,Non-Charter,Non Core City (5),Non Core City (6),Non MC School,Non MC Elem School,01 - 02,ELEM,,
28127,Webster Ave,Webster Avenue School,28,Providence,"Webster Ave, Providence",Elementary School,191 Webster Avenue,Providence,02909,Non-Charter,Core City (5),Core City (6),Non MC School,Non MC Elem School,K - 06,ELEM,,
28102,W Broadway,West Broadway El. School,28,Providence,"W Broadway, Providence",Elementary School,152 Springfield Street,Providence,02909,Non-Charter,Core City (5),Core City (6),Non MC School,Non MC Elem School,PK - 05,ELEM,,
13104,W Glocester,West Glocester Elementary,13,Glocester,"W Glocester, Glocester",Elementary School,111 Reynolds Road/Rte 94,Glocester,02814,Non-Charter,Non Core City (5),Non Core City (6),Non MC School,Non MC Elem School,PK - 05,ELEM,,
32112,West Kingston,West Kingston School,32,South Kingstown,"West Kingston, South Kingstown",Elementary School,3119 Ministerial Road,South Kingstown,02892,Non-Charter,Non Core City (5),Non Core City (6),Non MC School,Non MC Elem School,K - 05,ELEM,,
38106,West Warwick HS,West Warwick High School,38,West Warwick,"West Warwick HS, West Warwick",High School,1 Webster Knight Drive,West Warwick,02893,Non-Charter,Non Core City (5),Core City (6),Non MC School,Non MC Elem School,09 - 12,,,HIGH
36104,Westerly HS,Westerly High School,36,Westerly,"Westerly HS, Westerly",High School,23 Ward Avenue,Westerly,02891,Non-Charter,Non Core City (5),Non Core City (6),Non MC School,Non MC Elem School,09 - 12,,,HIGH
36103,Westerly MS,Westerly Middle School,36,Westerly,"Westerly MS, Westerly",Middle School,10 Sandy Hill Road,Westerly,02891,Non-Charter,Non Core City (5),Non Core City (6),Non MC School,Non MC Elem School,05 - 08,,MIDDLE,
06109,Western Coventry,Western Coventry School,06,Coventry,"Western Coventry, Coventry",Elementary School,4588 Flat River Road,Coventry,02816,Non-Charter,Non Core City (5),Non Core City (6),Non MC School,Non MC Elem School,K - 05,ELEM,,
07129,Western Hills MS,Western Hills Middle School,07,Cranston,"Western Hills MS, Cranston",Middle School,400 Phenix Avenue,Cranston,02920,Non-Charter,Non Core City (5),Non Core City (6),Non MC School,Non MC Elem School,07 - 08,,MIDDLE,
35129,Wickes,Wickes School,35,Warwick,"Wickes, Warwick",Elementary School,50 Child Lane,Warwick,02886,Non-Charter,Non Core City (5),Non Core City (6),Non MC School,Non MC Elem School,PK - 06,ELEM,,
23105,Wickford MS,Wickford Middle School,23,North Kingstown,"Wickford MS, North Kingstown",Middle School,250 Tower Hill Road,North Kingstown,02852,Non-Charter,Non Core City (5),Non Core City (6),Non MC School,Non MC Elem School,06 - 08,,MIDDLE,
18101,Wilbur and McMahon,Wilbur and McMahon Schools,18,Little Compton,"Wilbur and McMahon, Little Compton",Elementary and Middle Schoo,28 Commons PO Box 178,Little Compton,02837,Non-Charter,Non Core City (5),Non Core City (6),Non MC School,Non MC Elem School,K - 08,ELEM,,
28189,Cooley/HSTA (HS),William B. Cooley/Health,28,Providence,"Cooley/HSTA (HS), Providence",High School,182 Thurbers Avenue,Providence,02905,Non-Charter,Core City (5),Core City (6),Making Connections School,Non MC Elem School,09 - 12,,,HIGH
03107,Callahan,William Callahan School,03,Burrillville,"Callahan, Burrillville",Elementary School,75 Callahan School St,Burrillville,02830,Non-Charter,Non Core City (5),Non Core City (6),Non MC School,Non MC Elem School,02 - 05,ELEM,,
28153,D'Abate,William D'Abate Elem. School,28,Providence,"D'Abate, Providence",Elementary School,60 Kossuth Street,Providence,02909,Non-Charter,Core City (5),Core City (6),Non MC School,Non MC Elem School,K - 05,ELEM,,
26105,Tolman HS,William E. Tolman High,26,Pawtucket,"Tolman HS, Pawtucket",High School,150 Exchange Street,Pawtucket,02860,Non-Charter,Core City (5),Core City (6),Non MC School,Non MC Elem School,09 - 12,,,HIGH
31103,Winsor,William Winsor School,31,Smithfield,"Winsor, Smithfield",Elementary School,562 Putnam Pike,Smithfield,02828,Non-Charter,Non Core City (5),Non Core City (6),Non MC School,Non MC Elem School,K - 05,ELEM,,
28148,Windmill St,Windmill Street El. School,28,Providence,"Windmill St, Providence",Elementary School,110 Paul Street,Providence,02904,Non-Charter,Core City (5),Core City (6),Non MC School,Non MC Elem School,K - 05,ELEM,,
35139,Winman Jr High,Winman Junior High School,35,Warwick,"Winman Jr High, Warwick",Middle School,575 Centerville Road,Warwick,02886,Non-Charter,Non Core City (5),Non Core City (6),Non MC School,Non MC Elem School,07 - 08,,MIDDLE,
16109,Winsor Hill,Winsor Hill School,16,Johnston,"Winsor Hill, Johnston",Elementary School,100 Theresa Street,Johnston,02919,Non-Charter,Non Core City (5),Non Core City (6),Non MC School,Non MC Elem School,01 - 05,ELEM,,
07121,Woodridge,Woodridge School,07,Cranston,"Woodridge, Cranston",Elementary School,401 Budlong Road,Cranston,02920,Non-Charter,Non Core City (5),Non Core City (6),Non MC School,Non MC Elem School,PK - 06,ELEM,,
39123,Woonsocket HS,Woonsocket High School,39,Woonsocket,"Woonsocket HS, Woonsocket",High School,777 Cass Avenue,Woonsocket,02895,Non-Charter,Core City (5),Core City (6),Non MC School,Non MC Elem School,09 - 12,,,HIGH
39115,Woonsocket MS,Woonsocket Middle School,39,Woonsocket,"Woonsocket MS, Woonsocket",Middle School,60 Florence Dr,Woonsocket,02895,Non-Charter,Core City (5),Core City (6),Non MC School,Non MC Elem School,06 - 08,,MIDDLE,
35119,Wyman,Wyman School,35,Warwick,"Wyman, Warwick",Elementary School,1 Columbia Avenue,Warwick,02888,Non-Charter,Non Core City (5),Non Core City (6),Non MC School,Non MC Elem School,K - 06,ELEM,,
